1 55041U          19305.72361111  .00000000  00000-0  00000-0 0 00000
2 55041 097.6600 169.0410 0000000 000.0000 324.7510 15.01920000000000
1 55041U          19305.94513889  .00000000  00000-0  00000-0 0 00000
2 55041 097.6600 169.2600 0000000 000.0000 081.0010 15.01920000000000
1 55041U          19306.40000000  .00000000  00000-0  00000-0 0 00000
2 55041 097.6590 169.7080 0000000 000.0000 017.2510 15.01920000000000
1 55041U          19306.70208333  .00000000  00000-0  00000-0 0 00000
2 55041 097.6580 170.0060 0000000 000.0000 208.5010 15.01920000000000
1 55041U          19306.94444444  .00000000  00000-0  00000-0 0 00000
2 55041 097.6580 170.2450 0000000 000.0000 077.2510 15.01920000000000
1 55041U          19307.29722222  .00000000  00000-0  00000-0 0 00000
2 55041 097.6570 170.5920 0000000 000.0000 182.2520 15.01920000000000
1 55041U          19307.62916667  .00000000  00000-0  00000-0 0 00000
2 55041 097.6570 170.9200 0000000 000.0000 174.7520 15.01920000000000
1 55041U          19307.99861111  .00000000  00000-0  00000-0 0 00000
2 55041 097.6560 171.2840 0000000 000.0000 009.7520 15.01920000000000
1 55041U          19308.40208333  .00000000  00000-0  00000-0 0 00000
2 55041 097.6550 171.6810 0000000 000.0000 028.5020 15.01920000000000
1 55041U          19308.65486111  .00000000  00000-0  00000-0 0 00000
2 55041 097.6550 171.9310 0000000 000.0000 313.5020 15.01920000000000
1 55041U          19308.94583333  .00000000  00000-0  00000-0 0 00000
2 55041 097.6540 172.2170 0000000 000.0000 084.7520 15.01920000000000
1 55041U          19309.25833333  .00000000  00000-0  00000-0 0 00000
2 55041 097.6540 172.5250 0000000 000.0000 332.2520 15.01920000000000
1 55041U          19309.62083333  .00000000  00000-0  00000-0 0 00000
2 55041 097.6530 172.8830 0000000 000.0000 129.7520 15.01920000000000
1 55041U          19310.00347222  .00000000  00000-0  00000-0 0 00000
2 55041 097.6520 173.2600 0000000 000.0000 036.0020 15.01920000000000
1 55041U          19310.36736111  .00000000  00000-0  00000-0 0 00000
2 55041 097.6520 173.6180 0000000 000.0000 201.0020 15.01920000000000
1 55041U          19310.71736111  .00000000  00000-0  00000-0 0 00000
2 55041 097.6510 173.9630 0000000 000.0000 291.0030 15.01920000000000
1 55041U          19311.04305556  .00000000  00000-0  00000-0 0 00000
2 55041 097.6500 174.2840 0000000 000.0000 249.7530 15.01920000000000
1 55041U          19311.36250000  .00000000  00000-0  00000-0 0 00000
2 55041 097.6500 174.5990 0000000 000.0000 174.7530 15.01920000000000
1 55041U          19311.69861111  .00000000  00000-0  00000-0 0 00000
2 55041 097.6490 174.9310 0000000 000.0000 189.7530 15.01920000000000
1 55041U          19311.89583333  .00000000  00000-0  00000-0 0 00000
2 55041 097.6490 175.1250 0000000 000.0000 174.7530 15.01914300000000
1 55041U          19312.17500000  .00000000  00000-0  00000-0 0 00000
2 55041 097.6480 175.4000 0000000 000.0000 242.2530 15.01914300000000
1 55041U          19312.51944444  .00000000  00000-0  00000-0 0 00000
2 55041 097.6480 175.7400 0000000 000.0000 302.2530 15.01914300000000
1 55041U          19312.92916667  .00000000  00000-0  00000-0 0 00000
2 55041 097.6470 176.1430 0000000 000.0000 354.7530 15.01914300000000
1 55041U          19313.28819444  .00000000  00000-0  00000-0 0 00000
2 55041 097.6460 176.4970 0000000 000.0000 133.5030 15.01914300000000
1 55041U          19313.61666667  .00000000  00000-0  00000-0 0 00000
2 55041 097.6460 176.8210 0000000 000.0000 107.2530 15.01914300000000
1 55041U          19313.97430556  .00000000  00000-0  00000-0 0 00000
2 55041 097.6450 177.1740 0000000 000.0000 238.5030 15.01914300000000
1 55041U          19314.19583333  .00000000  00000-0  00000-0 0 00000
2 55041 097.6440 177.3920 0000000 000.0000 354.7530 15.01914300000000
1 55041U          19314.57152778  .00000000  00000-0  00000-0 0 00000
2 55041 097.6440 177.7620 0000000 000.0000 223.5030 15.01914300000000
1 55041U          19314.81388889  .00000000  00000-0  00000-0 0 00000
2 55041 097.6430 178.0010 0000000 000.0000 092.2530 15.01914300000000
1 55041U          19315.16458333  .00000000  00000-0  00000-0 0 00000
2 55041 097.6430 178.3470 0000000 000.0000 186.0030 15.01914300000000
1 55041U          19315.49305556  .00000000  00000-0  00000-0 0 00000
2 55041 097.6420 178.6700 0000000 000.0000 159.7530 15.01914300000000
1 55041U          19315.96597222  .00000000  00000-0  00000-0 0 00000
2 55041 097.6410 179.1370 0000000 000.0000 193.5030 15.01914300000000
1 55041U          19316.22569444  .00000000  00000-0  00000-0 0 00000
2 55041 097.6410 179.3930 0000000 000.0000 156.0030 15.01914300000000
1 55041U          19316.48194444  .00000000  00000-0  00000-0 0 00000
2 55041 097.6400 179.6450 0000000 000.0000 099.7530 15.01914300000000
1 55041U          19316.82986111  .00000000  00000-0  00000-0 0 00000
2 55041 097.6400 179.9880 0000000 000.0000 178.5030 15.01914300000000
1 55041U          19317.29027778  .00000000  00000-0  00000-0 0 00000
2 55041 097.6390 180.4420 0000000 000.0000 144.7530 15.01914300000000
1 55041U          19317.63055556  .00000000  00000-0  00000-0 0 00000
2 55041 097.6380 180.7770 0000000 000.0000 182.2530 15.01914300000000
1 55041U          19317.89791667  .00000000  00000-0  00000-0 0 00000
2 55041 097.6380 181.0410 0000000 000.0000 186.0030 15.01914300000000
1 55041U          19318.29513889  .00000000  00000-0  00000-0 0 00000
2 55041 097.6370 181.4320 0000000 000.0000 171.0030 15.01914300000000
1 55041U          19318.53194444  .00000000  00000-0  00000-0 0 00000
2 55041 097.6360 181.6660 0000000 000.0000 009.7530 15.01914300000000
1 55041U          19318.84166667  .00000000  00000-0  00000-0 0 00000
2 55041 097.6360 181.9710 0000000 000.0000 242.2530 15.01914300000000
1 55041U          19318.89583333  .00000000  00000-0  00000-0 0 00000
2 55041 097.6360 182.0240 0000000 000.0000 174.7530 15.01914300000000
1 55041U          19319.19791667  .00000000  00000-0  00000-0 0 00000
2 55041 097.6350 182.3220 0000000 000.0000 006.0030 15.01914300000000
1 55041U          19319.60972222  .00000000  00000-0  00000-0 0 00000
2 55041 097.6340 182.7280 0000000 000.0000 069.7530 15.01914300000000
1 55041U          19319.95069444  .00000000  00000-0  00000-0 0 00000
2 55041 097.6340 183.0640 0000000 000.0000 111.0030 15.01914300000000
1 55041U          19320.23819444  .00000000  00000-0  00000-0 0 00000
2 55041 097.6330 183.3470 0000000 000.0000 223.5030 15.01914300000000
1 55041U          19320.56041667  .00000000  00000-0  00000-0 0 00000
2 55041 097.6330 183.6650 0000000 000.0000 163.5030 15.01914300000000
1 55041U          19320.82291667  .00000000  00000-0  00000-0 0 00000
2 55041 097.6320 183.9240 0000000 000.0000 141.0030 15.01914300000000
1 55041U          19321.30486111  .00000000  00000-0  00000-0 0 00000
2 55041 097.6310 184.3990 0000000 000.0000 223.5030 15.01914300000000
1 55041U          19321.55277778  .00000000  00000-0  00000-0 0 00000
2 55041 097.6310 184.6430 0000000 000.0000 122.2530 15.01914300000000
1 55041U          19321.84861111  .00000000  00000-0  00000-0 0 00000
2 55041 097.6300 184.9340 0000000 000.0000 279.7530 15.01914300000000
1 55041U          19322.19166667  .00000000  00000-0  00000-0 0 00000
2 55041 097.6300 185.2730 0000000 000.0000 332.2530 15.01914300000000
1 55041U          19322.62291667  .00000000  00000-0  00000-0 0 00000
2 55041 097.6290 185.6980 0000000 000.0000 141.0030 15.01914300000000
1 55041U          19322.92986111  .00000000  00000-0  00000-0 0 00000
2 55041 097.6280 186.0000 0000000 000.0000 358.5030 15.01914300000000
1 55041U          19323.15277778  .00000000  00000-0  00000-0 0 00000
2 55041 097.6280 186.2200 0000000 000.0000 122.2530 15.01914300000000
1 55041U          19323.61250000  .00000000  00000-0  00000-0 0 00000
2 55041 097.6270 186.6730 0000000 000.0000 084.7530 15.01914300000000
1 55041U          19323.84305556  .00000000  00000-0  00000-0 0 00000
2 55041 097.6270 186.9000 0000000 000.0000 249.7530 15.01914300000000
1 55041U          19324.18333333  .00000000  00000-0  00000-0 0 00000
2 55041 097.6260 187.2350 0000000 000.0000 287.2530 15.01914300000000
1 55041U          19324.50833333  .00000000  00000-0  00000-0 0 00000
2 55041 097.6250 187.5560 0000000 000.0000 242.2530 15.01914300000000
1 55041U          19324.97361111  .00000000  00000-0  00000-0 0 00000
2 55041 097.6240 188.0140 0000000 000.0000 234.7520 15.01914300000000
1 55041U          19325.15138889  .00000000  00000-0  00000-0 0 00000
2 55041 097.6240 188.1900 0000000 000.0000 114.7520 15.01914300000000
1 55041U          19325.52569444  .00000000  00000-0  00000-0 0 00000
2 55041 097.6230 188.5580 0000000 000.0000 336.0020 15.01914300000000
1 55041U          19325.89583333  .00000000  00000-0  00000-0 0 00000
2 55041 097.6230 188.9230 0000000 000.0000 174.7520 15.01914300000000
1 55041U          19325.90277778  .00000000  00000-0  00000-0 0 00000
2 55041 097.6230 188.9300 0000000 000.0000 212.2520 15.01914300000000
1 55041U          19326.29513889  .00000000  00000-0  00000-0 0 00000
2 55041 097.6220 189.3170 0000000 000.0000 171.0020 15.01914300000000
1 55041U          19326.64444444  .00000000  00000-0  00000-0 0 00000
2 55041 097.6210 189.6610 0000000 000.0000 257.2520 15.01914300000000
1 55041U          19326.92361111  .00000000  00000-0  00000-0 0 00000
2 55041 097.6210 189.9360 0000000 000.0000 324.7520 15.01914300000000
1 55041U          19327.18194444  .00000000  00000-0  00000-0 0 00000
2 55041 097.6200 190.1910 0000000 000.0000 279.7520 15.01914300000000
1 55041U          19327.49722222  .00000000  00000-0  00000-0 0 00000
2 55041 097.6200 190.5020 0000000 000.0000 182.2520 15.01914300000000
1 55041U          19327.95694444  .00000000  00000-0  00000-0 0 00000
2 55041 097.6190 190.9550 0000000 000.0000 144.7520 15.01914300000000
1 55041U          19328.19236111  .00000000  00000-0  00000-0 0 00000
2 55041 097.6190 191.1870 0000000 000.0000 336.0020 15.01914300000000
